KUIPER-00279            
1 67795U 26030AH  26065.18804810  .00034828  00000+0  10081-2 0  9990
2 67795  51.8808 236.0959 0006579  37.7331 322.4115 15.35250306  4553
CREW DRAGON 12          
1 67796U 26031A   26065.22200803  .00008136  00000+0  15844-3 0  9995
2 67796  51.6317  89.5003 0008136 162.2758 197.8515 15.48470661555670
STARLINK-36800          
1 67797U 26032A   26065.26304024  .00125140  00000+0  82664-3 0  9990
2 67797  97.2845 251.5758 0001468  86.7272 273.4161 15.75217336  4241
STARLINK-36798          
1 67798U 26032B   26065.25002315  .00070018  00000+0  46727-3 0  9991
2 67798  97.2854 251.6035 0001676  91.0544 287.3274 15.75149301  4169
STARLINK-36804          
1 67799U 26032C   26065.26126520  .00263069  00000+0  17011-2 0  9991
2 67799  97.2846 251.5790 0001616  82.6800 277.4649 15.75321352  4246
STARLINK-36354          
1 67800U 26032D   26065.25002315  .00023944  00000+0  16107-3 0  9990
2 67800  97.2854 251.5966 0001731  90.8893 267.4863 15.75172692  4220
STARLINK-36773          
1 67801U 26032E   26065.25809968  .00130870  00000+0  86385-3 0  9992
2 67801  97.2847 251.5831 0001509  65.3886 294.7536 15.75218079  4248
STARLINK-36739          
1 67802U 26032F   26065.25002315  .00023462  00000+0  15781-3 0  9994
2 67802  97.2848 251.6193 0001666 101.4011 316.9600 15.75178010  4225
STARLINK-36768          
1 67803U 26032G   26065.25210189  .00191760  00000+0  12554-2 0  9996
2 67803  97.2845 251.5904 0001682  75.6840 284.4612 15.75235814  4242
STARLINK-36792          
1 67804U 26032H   26065.25457158  .00116084  00000+0  76771-3 0  9994
2 67804  97.2848 251.5869 0001448  67.5823 292.5596 15.75216971  4241
STARLINK-36782          
1 67805U 26032J   26065.23299806  .00216963  00000+0  11011-2 0  9999
2 67805  97.2834 251.6168 0001618  80.0206 280.1245 15.80902984  4240
STARLINK-36389          
1 67806U 26032K   26065.25002315 -.00010546  00000+0 -69916-4 0  9999
2 67806  97.2844 251.6107 0001605  81.3028 317.0624 15.75191020  4221
STARLINK-36382          
1 67807U 26032L   26065.25002315  .00011340  00000+0  76852-4 0  9998
2 67807  97.2843 251.6152 0001573  89.3998 320.9742 15.75172329  4167
STARLINK-36811          
1 67808U 26032M   26065.25002315 -.00720943  00000+0 -51427-2 0  9996
2 67808  97.2844 251.6392 0001561  72.4613  33.6631 15.75677770  4221
STARLINK-36795          
1 67809U 26032N   26065.24821528  .00170966  00000+0  11214-2 0  9993
2 67809  97.2845 251.5948 0001351  71.5919 288.5493 15.75250017  4245
STARLINK-36807          
1 67810U 26032P   26065.25002315  .00006521  00000+0  44574-4 0  9993
2 67810  97.2843 251.6349 0001930  84.3924  15.9729 15.75177581  4228
