[{"OBJECT_NAME":"KUIPER-00279","OBJECT_ID":"2026-030AH","EPOCH":"2026-03-06T04:30:47.355840","MEAN_MOTION":15.35250306,"ECCENTRICITY":0.00065791,"INCLINATION":51.8808,"RA_OF_ASC_NODE":236.0959,"ARG_OF_PERICENTER":37.7331,"MEAN_ANOMALY":322.4115,"EPHEMERIS_TYPE":0,"CLASSIFICATION_TYPE":"U","NORAD_CAT_ID":67795,"ELEMENT_SET_NO":999,"REV_AT_EPOCH":455,"BSTAR":0.0010080813,"MEAN_MOTION_DOT":0.00034828,"MEAN_MOTION_DDOT":0},{"OBJECT_NAME":"CREW DRAGON 12","OBJECT_ID":"2026-031A","EPOCH":"2026-03-06T05:19:41.493792","MEAN_MOTION":15.48470661,"ECCENTRICITY":0.00081363,"INCLINATION":51.6317,"RA_OF_ASC_NODE":89.5003,"ARG_OF_PERICENTER":162.2758,"MEAN_ANOMALY":197.8515,"EPHEMERIS_TYPE":0,"CLASSIFICATION_TYPE":"U","NORAD_CAT_ID":67796,"ELEMENT_SET_NO":999,"REV_AT_EPOCH":55567,"BSTAR":0.00015844115,"MEAN_MOTION_DOT":8.136e-5,"MEAN_MOTION_DDOT":0},{"OBJECT_NAME":"STARLINK-36800","OBJECT_ID":"2026-032A","EPOCH":"2026-03-06T06:18:46.676736","MEAN_MOTION":15.75217336,"ECCENTRICITY":0.00014681,"INCLINATION":97.2845,"RA_OF_ASC_NODE":251.5758,"ARG_OF_PERICENTER":86.7272,"MEAN_ANOMALY":273.4161,"EPHEMERIS_TYPE":0,"CLASSIFICATION_TYPE":"U","NORAD_CAT_ID":67797,"ELEMENT_SET_NO":999,"REV_AT_EPOCH":424,"BSTAR":0.00082664274,"MEAN_MOTION_DOT":0.0012514,"MEAN_MOTION_DDOT":0},{"OBJECT_NAME":"STARLINK-36798","OBJECT_ID":"2026-032B","EPOCH":"2026-03-06T06:00:02.000160","MEAN_MOTION":15.75149301,"ECCENTRICITY":0.00016763,"INCLINATION":97.2854,"RA_OF_ASC_NODE":251.6035,"ARG_OF_PERICENTER":91.0544,"MEAN_ANOMALY":287.3274,"EPHEMERIS_TYPE":0,"CLASSIFICATION_TYPE":"U","NORAD_CAT_ID":67798,"ELEMENT_SET_NO":999,"REV_AT_EPOCH":416,"BSTAR":0.00046726759,"MEAN_MOTION_DOT":0.00070018,"MEAN_MOTION_DDOT":0},{"OBJECT_NAME":"STARLINK-36804","OBJECT_ID":"2026-032C","EPOCH":"2026-03-06T06:16:13.313280","MEAN_MOTION":15.75321352,"ECCENTRICITY":0.00016161,"INCLINATION":97.2846,"RA_OF_ASC_NODE":251.579,"ARG_OF_PERICENTER":82.68,"MEAN_ANOMALY":277.4649,"EPHEMERIS_TYPE":0,"CLASSIFICATION_TYPE":"U","NORAD_CAT_ID":67799,"ELEMENT_SET_NO":999,"REV_AT_EPOCH":424,"BSTAR":0.0017011353,"MEAN_MOTION_DOT":0.00263069,"MEAN_MOTION_DDOT":0},{"OBJECT_NAME":"STARLINK-36354","OBJECT_ID":"2026-032D","EPOCH":"2026-03-06T06:00:02.000160","MEAN_MOTION":15.75172692,"ECCENTRICITY":0.00017312,"INCLINATION":97.2854,"RA_OF_ASC_NODE":251.5966,"ARG_OF_PERICENTER":90.8893,"MEAN_ANOMALY":267.4863,"EPHEMERIS_TYPE":0,"CLASSIFICATION_TYPE":"U","NORAD_CAT_ID":67800,"ELEMENT_SET_NO":999,"REV_AT_EPOCH":422,"BSTAR":0.00016106639,"MEAN_MOTION_DOT":0.00023944,"MEAN_MOTION_DDOT":0},{"OBJECT_NAME":"STARLINK-36773","OBJECT_ID":"2026-032E","EPOCH":"2026-03-06T06:11:39.812352","MEAN_MOTION":15.75218079,"ECCENTRICITY":0.00015095,"INCLINATION":97.2847,"RA_OF_ASC_NODE":251.5831,"ARG_OF_PERICENTER":65.3886,"MEAN_ANOMALY":294.7536,"EPHEMERIS_TYPE":0,"CLASSIFICATION_TYPE":"U","NORAD_CAT_ID":67801,"ELEMENT_SET_NO":999,"REV_AT_EPOCH":424,"BSTAR":0.00086384533,"MEAN_MOTION_DOT":0.0013087,"MEAN_MOTION_DDOT":0},{"OBJECT_NAME":"STARLINK-36739","OBJECT_ID":"2026-032F","EPOCH":"2026-03-06T06:00:02.000160","MEAN_MOTION":15.7517801,"ECCENTRICITY":0.00016662,"INCLINATION":97.2848,"RA_OF_ASC_NODE":251.6193,"ARG_OF_PERICENTER":101.4011,"MEAN_ANOMALY":316.96,"EPHEMERIS_TYPE":0,"CLASSIFICATION_TYPE":"U","NORAD_CAT_ID":67802,"ELEMENT_SET_NO":999,"REV_AT_EPOCH":422,"BSTAR":0.0001578138,"MEAN_MOTION_DOT":0.00023462,"MEAN_MOTION_DDOT":0},{"OBJECT_NAME":"STARLINK-36768","OBJECT_ID":"2026-032G","EPOCH":"2026-03-06T06:03:01.603296","MEAN_MOTION":15.75235814,"ECCENTRICITY":0.00016828,"INCLINATION":97.2845,"RA_OF_ASC_NODE":251.5904,"ARG_OF_PERICENTER":75.684,"MEAN_ANOMALY":284.4612,"EPHEMERIS_TYPE":0,"CLASSIFICATION_TYPE":"U","NORAD_CAT_ID":67803,"ELEMENT_SET_NO":999,"REV_AT_EPOCH":424,"BSTAR":0.0012553557,"MEAN_MOTION_DOT":0.0019176,"MEAN_MOTION_DDOT":0},{"OBJECT_NAME":"STARLINK-36792","OBJECT_ID":"2026-032H","EPOCH":"2026-03-06T06:06:34.984512","MEAN_MOTION":15.75216971,"ECCENTRICITY":0.0001448,"INCLINATION":97.2848,"RA_OF_ASC_NODE":251.5869,"ARG_OF_PERICENTER":67.5823,"MEAN_ANOMALY":292.5596,"EPHEMERIS_TYPE":0,"CLASSIFICATION_TYPE":"U","NORAD_CAT_ID":67804,"ELEMENT_SET_NO":999,"REV_AT_EPOCH":424,"BSTAR":0.00076771431,"MEAN_MOTION_DOT":0.00116084,"MEAN_MOTION_DDOT":0},{"OBJECT_NAME":"STARLINK-36782","OBJECT_ID":"2026-032J","EPOCH":"2026-03-06T05:35:31.032384","MEAN_MOTION":15.80902984,"ECCENTRICITY":0.00016187,"INCLINATION":97.2834,"RA_OF_ASC_NODE":251.6168,"ARG_OF_PERICENTER":80.0206,"MEAN_ANOMALY":280.1245,"EPHEMERIS_TYPE":0,"CLASSIFICATION_TYPE":"U","NORAD_CAT_ID":67805,"ELEMENT_SET_NO":999,"REV_AT_EPOCH":424,"BSTAR":0.0011011115,"MEAN_MOTION_DOT":0.00216963,"MEAN_MOTION_DDOT":0},{"OBJECT_NAME":"STARLINK-36389","OBJECT_ID":"2026-032K","EPOCH":"2026-03-06T06:00:02.000160","MEAN_MOTION":15.7519102,"ECCENTRICITY":0.00016054,"INCLINATION":97.2844,"RA_OF_ASC_NODE":251.6107,"ARG_OF_PERICENTER":81.3028,"MEAN_ANOMALY":317.0624,"EPHEMERIS_TYPE":0,"CLASSIFICATION_TYPE":"U","NORAD_CAT_ID":67806,"ELEMENT_SET_NO":999,"REV_AT_EPOCH":422,"BSTAR":-6.9916227e-5,"MEAN_MOTION_DOT":-0.00010546,"MEAN_MOTION_DDOT":0},{"OBJECT_NAME":"STARLINK-36382","OBJECT_ID":"2026-032L","EPOCH":"2026-03-06T06:00:02.000160","MEAN_MOTION":15.75172329,"ECCENTRICITY":0.00015733,"INCLINATION":97.2843,"RA_OF_ASC_NODE":251.6152,"ARG_OF_PERICENTER":89.3998,"MEAN_ANOMALY":320.9742,"EPHEMERIS_TYPE":0,"CLASSIFICATION_TYPE":"U","NORAD_CAT_ID":67807,"ELEMENT_SET_NO":999,"REV_AT_EPOCH":416,"BSTAR":7.6852331e-5,"MEAN_MOTION_DOT":0.0001134,"MEAN_MOTION_DDOT":0},{"OBJECT_NAME":"STARLINK-36811","OBJECT_ID":"2026-032M","EPOCH":"2026-03-06T06:00:02.000160","MEAN_MOTION":15.7567777,"ECCENTRICITY":0.00015619,"INCLINATION":97.2844,"RA_OF_ASC_NODE":251.6392,"ARG_OF_PERICENTER":72.4613,"MEAN_ANOMALY":33.6631,"EPHEMERIS_TYPE":0,"CLASSIFICATION_TYPE":"U","NORAD_CAT_ID":67808,"ELEMENT_SET_NO":999,"REV_AT_EPOCH":422,"BSTAR":-0.005142671,"MEAN_MOTION_DOT":-0.00720943,"MEAN_MOTION_DDOT":0},{"OBJECT_NAME":"STARLINK-36795","OBJECT_ID":"2026-032N","EPOCH":"2026-03-06T05:57:25.800192","MEAN_MOTION":15.75250017,"ECCENTRICITY":0.00013514,"INCLINATION":97.2845,"RA_OF_ASC_NODE":251.5948,"ARG_OF_PERICENTER":71.5919,"MEAN_ANOMALY":288.5493,"EPHEMERIS_TYPE":0,"CLASSIFICATION_TYPE":"U","NORAD_CAT_ID":67809,"ELEMENT_SET_NO":999,"REV_AT_EPOCH":424,"BSTAR":0.0011213929,"MEAN_MOTION_DOT":0.00170966,"MEAN_MOTION_DDOT":0},{"OBJECT_NAME":"STARLINK-36807","OBJECT_ID":"2026-032P","EPOCH":"2026-03-06T06:00:02.000160","MEAN_MOTION":15.75177581,"ECCENTRICITY":0.00019308,"INCLINATION":97.2843,"RA_OF_ASC_NODE":251.6349,"ARG_OF_PERICENTER":84.3924,"MEAN_ANOMALY":15.9729,"EPHEMERIS_TYPE":0,"CLASSIFICATION_TYPE":"U","NORAD_CAT_ID":67810,"ELEMENT_SET_NO":999,"REV_AT_EPOCH":422,"BSTAR":4.4574261e-5,"MEAN_MOTION_DOT":6.521e-5,"MEAN_MOTION_DDOT":0}]
